OBJECT_NAME,OBJECT_ID,EPOCH,MEAN_MOTION,ECCENTRICITY,INCLINATION,RA_OF_ASC_NODE,ARG_OF_PERICENTER,MEAN_ANOMALY,EPHEMERIS_TYPE,CLASSIFICATION_TYPE,NORAD_CAT_ID,ELEMENT_SET_NO,REV_AT_EPOCH,BSTAR,MEAN_MOTION_DOT,MEAN_MOTION_DDOT
STARLINK-4325,2022-077AB,2026-07-03T22:29:12.634656,15.05653392,.00012967,97.2858,4.1745,89.6274,270.5103,0,U,53068,999,21847,.2196484E-5,-.25E-6,0
STARLINK-4323,2022-077AC,2026-07-04T05:41:54.839328,15.05642348,.0001008,97.2859,3.2989,98.6868,261.4474,0,U,53069,999,21844,-.580929E-4,-.894E-5,0
STARLINK-4342,2022-077AD,2026-07-04T05:31:53.700960,15.05654563,.00013727,97.2850,4.5403,111.5854,248.5520,0,U,53070,999,21852,.15796429E-4,.172E-5,0
STARLINK-4328,2022-077AE,2026-07-04T05:27:54.404064,15.05654785,.00015959,97.2853,4.5271,97.7245,262.4164,0,U,53071,999,21852,.16678855E-4,.184E-5,0
STARLINK-4344,2022-077AF,2026-07-04T05:07:57.389088,15.05652786,.00016743,97.2849,4.4019,103.6525,256.4889,0,U,53072,999,21851,-.10915649E-4,-.214E-5,0
STARLINK-4346,2022-077AG,2026-07-03T23:19:19.815168,15.23131052,.00062256,97.6353,14.7922,165.7035,194.4378,0,U,53073,999,21898,.71221794E-3,.16771E-3,0
STARLINK-4310,2022-077AH,2026-07-04T06:00:02.999808,15.49414007,.00014176,97.5862,7.0922,85.1106,180.3585,0,U,53074,999,575,.71227881E-2,.411508E-2,0
STARLINK-4348,2022-077AJ,2026-07-04T05:49:52.814496,15.05656614,.00012239,97.2858,3.4232,103.8345,256.3019,0,U,53075,999,21845,.62928565E-4,.852E-5,0
STARLINK-4347,2022-077AK,2026-07-04T05:25:56.636544,15.05654751,.00011375,97.2849,3.3058,127.9244,232.2086,0,U,53076,999,21844,.39524414E-4,.514E-5,0
STARLINK-4322,2022-077AM,2026-07-04T05:57:51.299424,15.05657135,.00018368,97.2857,3.4200,104.2345,255.9086,0,U,53078,999,21845,.67221381E-4,.914E-5,0
STARLINK-4327,2022-077AN,2026-07-04T05:51:49.327488,15.05655180,.0001399,97.2858,4.4792,91.0991,269.0397,0,U,53079,999,21852,.58940595E-4,.794E-5,0
STARLINK-4330,2022-077AP,2026-07-04T06:15:46.880064,15.05585778,.00008682,97.2919,4.4907,90.5122,269.6205,0,U,53080,999,21852,.10515623E-2,.15122E-3,0
STARLINK-4326,2022-077AQ,2026-07-04T05:09:59.864544,15.05654607,.00016429,97.2850,3.2911,93.0610,267.0805,0,U,53081,999,21844,-.29824E-7,-.57E-6,0
STARLINK-4321,2022-077AR,2026-07-04T05:33:55.033344,15.05652825,.00013193,97.2850,3.2727,102.4114,257.7262,0,U,53082,999,21844,.17640001E-4,.198E-5,0
STARLINK-4251,2022-077AS,2026-07-04T06:07:46.053696,15.05664713,.00010943,97.2861,4.4304,98.5610,261.5742,0,U,53083,999,21852,-.9241692E-5,-.19E-5,0
STARLINK-4319,2022-077AT,2026-07-04T06:03:46.895040,15.05665204,.00011791,97.2858,4.4598,92.2693,267.8670,0,U,53084,999,21852,.66487528E-4,.904E-5,0
STARLINK-4324,2022-077AU,2026-07-03T16:02:25.103904,15.05655347,.00015637,97.2855,3.8667,85.7112,274.4294,0,U,53085,999,21843,-.9162451E-5,-.188E-5,0
STARLINK-4318,2022-077AV,2026-07-04T05:29:54.206304,15.05679715,.00013272,97.2849,3.4205,120.7474,239.3885,0,U,53086,999,21845,.23705544E-3,.3368E-4,0
STARLINK-4333,2022-077AX,2026-07-04T05:21:57.334464,15.05654295,.00016288,97.2851,3.2666,91.5643,268.5771,0,U,53088,999,21844,-.2029265E-5,-.86E-6,0
STARLINK-4150,2022-083C,2026-07-04T06:00:02.999808,15.15843890,.00008276,53.1598,10.5415,83.1763,302.1486,0,U,53134,999,473,.52575954E-1,.1102199E-1,0
STARLINK-4023,2022-083D,2026-07-04T06:00:02.999808,15.30822052,.00008505,53.1602,9.2596,101.6233,184.3664,0,U,53135,999,569,.44505136E-1,.1467098E-1,0
STARLINK-4152,2022-083E,2026-07-04T06:00:02.999808,15.14783194,.00008647,53.1603,10.5447,78.2959,285.4297,0,U,53136,999,579,.56761026E-1,.1159859E-1,0
STARLINK-4145,2022-083F,2026-07-04T06:00:02.999808,15.16294770,.00009641,53.1596,10.4979,91.8775,336.1203,0,U,53137,999,579,.24492784E-2,.48016E-3,0
STARLINK-4141,2022-083G,2026-07-03T12:33:52.372512,15.08834792,.00021394,53.1597,9.1127,88.1001,272.0235,0,U,53138,999,21954,-.16638687E-3,-.2935E-4,0
STARLINK-4185,2022-083H,2026-07-04T05:49:09.467616,15.08837380,.00013771,53.1617,10.7004,92.0521,268.0628,0,U,53139,999,21881,.13103543E-3,.1798E-4,0
STARLINK-4170,2022-083J,2026-07-04T06:00:02.999808,15.12297142,.00010351,53.1595,10.6313,78.8051,320.4608,0,U,53140,999,580,.14846231E-2,.25793E-3,0
STARLINK-4103,2022-083K,2026-07-04T06:00:02.999808,15.28750233,.00015574,53.1607,9.3279,71.1319,20.3396,0,U,53141,999,580,.37237917E-2,.106645E-2,0
STARLINK-4101,2022-083L,2026-07-04T06:00:02.999808,15.28444158,.00010559,53.1610,9.3772,85.9319,280.6167,0,U,53142,999,580,.32540245E-2,.92094E-3,0
STARLINK-4102,2022-083M,2026-07-04T05:37:05.859840,15.14260555,.00003518,53.1615,10.1481,305.6612,54.4349,0,U,53143,999,21882,.18034562E-3,.3035E-4,0
STARLINK-4100,2022-083N,2026-07-04T06:00:02.999808,15.30169092,.00014465,53.1611,9.3461,82.0736,323.9411,0,U,53144,999,570,.396032E-1,.1282701E-1,0
