STARLINK-4325           
1 53068U 22077AB  26184.93695179 -.00000025  00000+0  21965-5 0  9995
2 53068  97.2858   4.1745 0001296  89.6274 270.5103 15.05653392218477
STARLINK-4323           
1 53069U 22077AC  26185.23744027 -.00000894  00000+0 -58093-4 0  9993
2 53069  97.2859   3.2989 0001008  98.6868 261.4474 15.05642348218445
STARLINK-4342           
1 53070U 22077AD  26185.23048265  .00000172  00000+0  15796-4 0  9996
2 53070  97.2850   4.5403 0001372 111.5854 248.5520 15.05654563218526
STARLINK-4328           
1 53071U 22077AE  26185.22771301  .00000184  00000+0  16679-4 0  9994
2 53071  97.2853   4.5271 0001595  97.7245 262.4164 15.05654785218524
STARLINK-4344           
1 53072U 22077AF  26185.21385867 -.00000214  00000+0 -10916-4 0  9996
2 53072  97.2849   4.4019 0001674 103.6525 256.4889 15.05652786218510
STARLINK-4346           
1 53073U 22077AG  26184.97175712  .00016771  00000+0  71222-3 0  9994
2 53073  97.6353  14.7922 0006225 165.7035 194.4378 15.23131052218987
STARLINK-4310           
1 53074U 22077AH  26185.25003472  .00411508  00000+0  71228-2 0  9992
2 53074  97.5862   7.0922 0001417  85.1106 180.3585 15.49414007  5754
STARLINK-4348           
1 53075U 22077AJ  26185.24297239  .00000852  00000+0  62929-4 0  9994
2 53075  97.2858   3.4232 0001223 103.8345 256.3019 15.05656614218452
STARLINK-4347           
1 53076U 22077AK  26185.22634996  .00000514  00000+0  39524-4 0  9998
2 53076  97.2849   3.3058 0001137 127.9244 232.2086 15.05654751218443
STARLINK-4322           
1 53078U 22077AM  26185.24851041  .00000914  00000+0  67221-4 0  9993
2 53078  97.2857   3.4200 0001836 104.2345 255.9086 15.05657135218452
STARLINK-4327           
1 53079U 22077AN  26185.24432092  .00000794  00000+0  58941-4 0  9990
2 53079  97.2858   4.4792 0001399  91.0991 269.0397 15.05655180218522
STARLINK-4330           
1 53080U 22077AP  26185.26095926  .00015122  00000+0  10516-2 0  9990
2 53080  97.2919   4.4907 0000868  90.5122 269.6205 15.05585778218529
STARLINK-4326           
1 53081U 22077AQ  26185.21527621 -.00000057  00000+0 -29824-7 0  9998
2 53081  97.2850   3.2911 0001642  93.0610 267.0805 15.05654607218444
STARLINK-4321           
1 53082U 22077AR  26185.23188696  .00000198  00000+0  17640-4 0  9990
2 53082  97.2850   3.2727 0001319 102.4114 257.7262 15.05652825218448
STARLINK-4251           
1 53083U 22077AS  26185.25539414 -.00000190  00000+0 -92417-5 0  9991
2 53083  97.2861   4.4304 0001094  98.5610 261.5742 15.05664713218525
STARLINK-4319           
1 53084U 22077AT  26185.25262610  .00000904  00000+0  66488-4 0  9992
2 53084  97.2858   4.4598 0001179  92.2693 267.8670 15.05665204218528
STARLINK-4324           
1 53085U 22077AU  26184.66834611 -.00000188  00000+0 -91625-5 0  9991
2 53085  97.2855   3.8667 0001563  85.7112 274.4294 15.05655347218439
STARLINK-4318           
1 53086U 22077AV  26185.22909961  .00003368  00000+0  23706-3 0  9990
2 53086  97.2849   3.4205 0001327 120.7474 239.3885 15.05679715218459
STARLINK-4333           
1 53088U 22077AX  26185.22358026 -.00000086  00000+0 -20293-5 0  9998
2 53088  97.2851   3.2666 0001628  91.5643 268.5771 15.05654295218443
STARLINK-4150           
1 53134U 22083C   26185.25003472  .01102199  00000+0  52576-1 0  9994
2 53134  53.1598  10.5415 0000827  83.1763 302.1486 15.15843890  4732
STARLINK-4023           
1 53135U 22083D   26185.25003472  .01467098  00000+0  44505-1 0  9990
2 53135  53.1602   9.2596 0000850 101.6233 184.3664 15.30822052  5696
STARLINK-4152           
1 53136U 22083E   26185.25003472  .01159859  00000+0  56761-1 0  9991
2 53136  53.1603  10.5447 0000864  78.2959 285.4297 15.14783194  5798
STARLINK-4145           
1 53137U 22083F   26185.25003472  .00048016  00000+0  24493-2 0  9991
2 53137  53.1596  10.4979 0000964  91.8775 336.1203 15.16294770  5797
STARLINK-4141           
1 53138U 22083G   26184.52352283 -.00002935  00000+0 -16639-3 0  9994
2 53138  53.1597   9.1127 0002139  88.1001 272.0235 15.08834792219544
STARLINK-4185           
1 53139U 22083H   26185.24247069  .00001798  00000+0  13104-3 0  9998
2 53139  53.1617  10.7004 0001377  92.0521 268.0628 15.08837380218810
STARLINK-4170           
1 53140U 22083J   26185.25003472  .00025793  00000+0  14846-2 0  9993
2 53140  53.1595  10.6313 0001035  78.8051 320.4608 15.12297142  5805
STARLINK-4103           
1 53141U 22083K   26185.25003472  .00106645  00000+0  37238-2 0  9990
2 53141  53.1607   9.3279 0001557  71.1319  20.3396 15.28750233  5800
STARLINK-4101           
1 53142U 22083L   26185.25003472  .00092094  00000+0  32540-2 0  9994
2 53142  53.1610   9.3772 0001055  85.9319 280.6167 15.28444158  5802
STARLINK-4102           
1 53143U 22083M   26185.23409560  .00003035  00000+0  18035-3 0  9992
2 53143  53.1615  10.1481 0000351 305.6612  54.4349 15.14260555218820
STARLINK-4100           
1 53144U 22083N   26185.25003472  .01282701  00000+0  39603-1 0  9999
2 53144  53.1611   9.3461 0001446  82.0736 323.9411 15.30169092  5701
